STARLINK-3700           
1 51956U 22025A   26068.16489539 -.00000766  00000+0 -14216-4 0  9992
2 51956  53.1593  15.8755 0001295  94.7722 265.3427 15.29350924221096
NESS                    
1 58020U 23155E   26068.76452457  .00019469  00000+0  74047-3 0  9996
2 58020  97.5941 152.6141 0006891 179.8776 180.2465 15.26794015133307
